{
    "links": {
        "self": "http://www.neowsapp.com/rest/v1/neo/54054444?api_key=iIulBulltgU6a56xZRHN4H3l9WmuAYTsLGpBGhQ2"
    },
    "id": "54054444",
    "neo_reference_id": "54054444",
    "name": "(2020 RK9)",
    "designation": "2020 RK9",
    "nasa_jpl_url": "http://ssd.jpl.nasa.gov/sbdb.cgi?sstr=54054444",
    "absolute_magnitude_h": 22.417,
    "estimated_diameter": {
        "kilometers": {
            "estimated_diameter_min": 0.0873282941,
            "estimated_diameter_max": 0.195272002
        },
        "meters": {
            "estimated_diameter_min": 87.3282941037,
            "estimated_diameter_max": 195.272001975
        },
        "miles": {
            "estimated_diameter_min": 0.0542632694,
            "estimated_diameter_max": 0.1213363591
        },
        "feet": {
            "estimated_diameter_min": 286.5101604273,
            "estimated_diameter_max": 640.6561949597
        }
    },
    "is_potentially_hazardous_asteroid": false,
    "close_approach_data": [
        {
            "close_approach_date": "2010-09-15",
            "close_approach_date_full": "2010-Sep-15 05:50",
            "epoch_date_close_approach": 1284529800000,
            "relative_velocity": {
                "kilometers_per_second": "22.4806052695",
                "kilometers_per_hour": "80930.1789701165",
                "miles_per_hour": "50286.8659272927"
            },
            "miss_distance": {
                "astronomical": "0.3664965842",
                "lunar": "142.5671712538",
                "kilometers": "54827108.358595654",
                "miles": "34067985.3805578652"
            },
            "orbiting_body": "Earth"
        },
        {
            "close_approach_date": "2020-10-10",
            "close_approach_date_full": "2020-Oct-10 13:34",
            "epoch_date_close_approach": 1602336840000,
            "relative_velocity": {
                "kilometers_per_second": "12.4662463658",
                "kilometers_per_hour": "44878.4869168238",
                "miles_per_hour": "27885.7464956231"
            },
            "miss_distance": {
                "astronomical": "0.2114455035",
                "lunar": "82.2523008615",
                "kilometers": "31631796.944677545",
                "miles": "19655087.202918321"
            },
            "orbiting_body": "Earth"
        }
    ],
    "orbital_data": {
        "orbit_id": "5",
        "orbit_determination_date": "2020-10-10 07:03:50",
        "first_observation_date": "2020-09-11",
        "last_observation_date": "2020-10-10",
        "data_arc_in_days": 29,
        "observations_used": 25,
        "orbit_uncertainty": "6",
        "minimum_orbit_intersection": ".124448",
        "jupiter_tisserand_invariant": "3.333",
        "epoch_osculation": "2459000.5",
        "eccentricity": ".5582023382401762",
        "semi_major_axis": "2.244891763409631",
        "inclination": "21.28292260225443",
        "ascending_node_longitude": "357.8123202454269",
        "orbital_period": "1228.546323545453",
        "perihelion_distance": ".9917879319782629",
        "perihelion_argument": "54.80140015215365",
        "aphelion_distance": "3.497995594841",
        "perihelion_time": "2459170.795065725988",
        "mean_anomaly": "310.0985656898694",
        "mean_motion": ".2930292436683042",
        "equinox": "J2000",
        "orbit_class": {
            "orbit_class_type": "APO",
            "orbit_class_description": "Near-Earth asteroid orbits which cross the Earth’s orbit similar to that of 1862 Apollo",
            "orbit_class_range": "a (semi-major axis) > 1.0 AU; q (perihelion) < 1.017 AU"
        }
    },
    "is_sentry_object": false
}